NORAD_CAT_ID,OBJECT_NAME,OBJECT_TYPE,EPOCH,MEAN_MOTION,ECCENTRICITY,INCLINATION,RA_OF_ASC_NODE,ARG_OF_PERICENTER,MEAN_ANOMALY,BSTAR,MEAN_MOTION_DOT,MEAN_MOTION_DDOT,TLE_LINE0,TLE_LINE1,TLE_LINE2,SEMIMAJOR_AXIS,PERIOD,APOGEE,PERIGEE,DECAYED
52637.0,STARLINK-3961,PAYLOAD,2022-07-13 14:00:41,15.73228749,0.0003179,53.2161,143.9024,27.9415,332.1775,-1.7626e-05,-3.1e-05,0.0,0 STARLINK-3961,1 52637U 22052AR  22194.58381541 -.00003100  00000-0 -17626-4 0  9999,2 52637  53.2161 143.9024 0003179  27.9415 332.1775 15.73228749 10225,6727.813,91.532,351.81699999999995,347.539,0.0
52637.0,STARLINK-3961,PAYLOAD,2022-07-13 22:00:00,15.73131435,0.0002706,53.215,142.2558,16.609,69.7305,6.3974e-05,8.341e-05,0.0,0 STARLINK-3961,1 52637U 22052AR  22194.91667824  .00008341  00000-0  63974-4 0  9994,2 52637  53.2150 142.2558 0002706  16.6090  69.7305 15.73131435  1302,6728.090999999999,91.537,351.776,348.135,0.0
52637.0,STARLINK-3961,PAYLOAD,2022-07-14 04:00:00,15.73117785,0.0002949,53.2148,141.0206,17.315,45.6505,0.00031043,0.00043023,0.0,0 STARLINK-3961,1 52637U 22052AR  22195.16667824  .00043023  00000-0  31043-3 0  9999,2 52637  53.2148 141.0206 0002949  17.3150  45.6505 15.73117785  9888,6728.13,91.538,351.97900000000016,348.01,0.0
52637.0,STARLINK-3961,PAYLOAD,2022-07-14 14:00:01,15.73169022,0.0002781,53.215,138.9575,17.9381,246.0957,0.00025905,0.00035847,0.0,0 STARLINK-3961,1 52637U 22052AR  22195.58334491  .00035847  00000-0  25905-3 0  9991,2 52637  53.2150 138.9575 0002781  17.9381 246.0957 15.73169022  1309,6727.983,91.535,351.72,347.977,0.0
52637.0,STARLINK-3961,PAYLOAD,2022-07-14 22:00:00,15.73224105,0.000271,53.2153,137.3079,18.7135,334.208,-1.2147e-05,-2.329e-05,0.0,0 STARLINK-3961,1 52637U 22052AR  22195.91667824 -.00002329  00000-0 -12147-4 0  9993,2 52637  53.2153 137.3079 0002710  18.7135 334.2080 15.73224105  1303,6727.826,91.532,351.515,347.86800000000005,0.0
52637.0,STARLINK-3961,PAYLOAD,2022-07-15 06:00:00,15.73173166,0.0002895,53.2154,135.6603,15.2771,66.6154,0.0003403,0.00047359,0.0,0 STARLINK-3961,1 52637U 22052AR  22196.25001157  .00047359  00000-0  34030-3 0  9996,2 52637  53.2154 135.6603 0002895  15.2771  66.6154 15.73173166 10050,6727.972,91.535,351.784,347.889,0.0
52637.0,STARLINK-3961,PAYLOAD,2022-07-15 14:00:01,15.73226342,0.0002706,53.2154,134.009,15.9864,154.8386,0.00012946,0.00017608,0.0,0 STARLINK-3961,1 52637U 22052AR  22196.58334491  .00017608  00000-0  12946-3 0  9998,2 52637  53.2154 134.0090 0002706  15.9864 154.8386 15.73226342  1304,6727.82,91.532,351.506,347.865,0.0
52637.0,STARLINK-3961,PAYLOAD,2022-07-15 22:00:00,15.73243258,0.0002712,53.2153,132.3598,20.5425,239.2601,-7.0541e-05,-0.0001053,0.0,0 STARLINK-3961,1 52637U 22052AR  22196.91667824 -.00010530  00000-0 -70541-4 0  9999,2 52637  53.2153 132.3598 0002712  20.5425 239.2601 15.73243258  1302,6727.772,91.531,351.461,347.81199999999984,0.0
52637.0,STARLINK-3961,PAYLOAD,2022-07-16 06:00:00,15.73238956,0.0002862,53.2148,130.7119,17.4712,331.2976,-0.0001197,-0.00017419,0.0,0 STARLINK-3961,1 52637U 22052AR  22197.25001157 -.00017419  00000-0 -11970-3 0  9991,2 52637  53.2148 130.7119 0002862  17.4712 331.2976 15.73238956 10203,6727.784000000002,91.531,351.575,347.724,0.0
52637.0,STARLINK-3961,PAYLOAD,2022-07-16 14:00:01,15.7319646,0.0002516,53.2149,129.0604,12.7104,65.0329,-0.00016132,-0.000232,0.0,0 STARLINK-3961,1 52637U 22052AR  22197.58334491 -.00023200  00000-0 -16132-3 0  9997,2 52637  53.2149 129.0604 0002516  12.7104  65.0329 15.73196460  1301,6727.905,91.533,351.463,348.07800000000015,0.0
52637.0,STARLINK-3961,PAYLOAD,2022-07-16 22:00:00,15.7322718,0.0002508,53.215,127.4111,14.7233,151.9449,0.00010993,0.00014853,0.0,0 STARLINK-3961,1 52637U 22052AR  22197.91667824  .00014853  00000-0  10993-3 0  9994,2 52637  53.2150 127.4111 0002508  14.7233 151.9449 15.73227180  1306,6727.818,91.532,351.37,347.995,0.0
52637.0,STARLINK-3961,PAYLOAD,2022-07-17 14:00:01,15.73148568,0.0002547,53.2149,124.1115,14.045,330.5174,0.00016574,0.00022653,0.0,0 STARLINK-3961,1 52637U 22052AR  22198.58334491  .00022653  00000-0  16574-3 0  9997,2 52637  53.2149 124.1115 0002547  14.0450 330.5174 15.73148568 10413,6728.042,91.536,351.62,348.1930000000001,0.0
52637.0,STARLINK-3961,PAYLOAD,2022-07-17 22:00:00,15.73143056,0.0002487,53.2159,122.4599,17.727,55.7198,9.2214e-05,0.00012309,0.0,0 STARLINK-3961,1 52637U 22052AR  22198.91667824  .00012309  00000-0  92214-4 0  9996,2 52637  53.2159 122.4599 0002487  17.7270  55.7198 15.73143056  1301,6728.058000000001,91.536,351.596,348.249,0.0
52637.0,STARLINK-3961,PAYLOAD,2022-07-18 06:00:00,15.73116722,0.0002806,53.214,120.8149,18.4832,143.8016,0.00074528,0.00104927,0.0,0 STARLINK-3961,1 52637U 22052AR  22199.25001157  .00104927  00000-0  74528-3 0  9990,2 52637  53.2140 120.8149 0002806  18.4832 143.8016 15.73116722 10523,6728.1330000000025,91.538,351.886,348.11,0.0
52637.0,STARLINK-3961,PAYLOAD,2022-07-18 14:00:01,15.73159099,0.0002553,53.2141,119.1632,20.3142,230.844,0.00057385,0.00080557,0.0,0 STARLINK-3961,1 52637U 22052AR  22199.58334491  .00080557  00000-0  57385-3 0  9990,2 52637  53.2141 119.1632 0002553  20.3142 230.8440 15.73159099 10574,6728.012,91.536,351.594,348.159,0.0
52637.0,STARLINK-3961,PAYLOAD,2022-07-18 22:00:00,15.73234217,0.0002565,53.2146,117.5138,21.5984,318.4675,0.00014411,0.00019682,0.0,0 STARLINK-3961,1 52637U 22052AR  22199.91667824  .00019682  00000-0  14411-3 0  9990,2 52637  53.2146 117.5138 0002565  21.5984 318.4675 15.73234217  1302,6727.7980000000025,91.531,351.38800000000015,347.93699999999984,0.0
52637.0,STARLINK-3961,PAYLOAD,2022-07-19 06:00:00,15.73250711,0.00028,53.2151,115.8645,17.6328,51.4008,-0.00016825,-0.00024224,0.0,0 STARLINK-3961,1 52637U 22052AR  22200.25001157 -.00024224  00000-0 -16825-3 0  9992,2 52637  53.2151 115.8645 0002800  17.6328  51.4008 15.73250711 10684,6727.751,91.53,351.499,347.732,0.0
52637.0,STARLINK-3961,PAYLOAD,2022-07-19 14:00:01,15.73246133,0.0002479,53.2141,114.2141,17.3628,140.6758,-2.685e-05,-4.397e-05,0.0,0 STARLINK-3961,1 52637U 22052AR  22200.58334491 -.00004397  00000-0 -26850-4 0  9997,2 52637  53.2141 114.2141 0002479  17.3628 140.6758 15.73246133 10731,6727.764,91.53,351.296,347.961,0.0
52637.0,STARLINK-3961,PAYLOAD,2022-07-19 22:00:00,15.73267601,0.0002477,53.2154,112.563,21.6762,225.3147,-0.00079931,-0.00111666,0.0,0 STARLINK-3961,1 52637U 22052AR  22200.91667824 -.00111666  00000-0 -79931-3 0  9998,2 52637  53.2154 112.5630 0002477  21.6762 225.3147 15.73267601  1303,6727.7019999999975,91.529,351.2340000000001,347.901,0.0
52637.0,STARLINK-3961,PAYLOAD,2022-07-20 14:00:01,15.73160387,0.0002440999999999,53.2155,109.2616,19.2743,45.7257,-0.00088529,-0.00122882,0.0,0 STARLINK-3961,1 52637U 22052AR  22201.58334491 -.00122882  00000-0 -88529-3 0  9998,2 52637  53.2155 109.2616 0002441  19.2743  45.7257 15.73160387 10897,6728.0080000000025,91.535,351.515,348.231,0.0
52637.0,STARLINK-3961,PAYLOAD,2022-07-20 22:00:01,15.72987956,0.0002534,53.2163,107.6118,20.5423,133.476,0.0017033,0.00243272,0.0,0 STARLINK-3961,1 52637U 22052AR  22201.91668981  .00243272  00000-0  17033-2 0  9995,2 52637  53.2163 107.6118 0002534  20.5423 133.4760 15.72987956  1306,6728.5,91.546,352.07,348.66,0.0
52637.0,STARLINK-3961,PAYLOAD,2022-07-21 14:00:01,15.73157392,0.000249,53.2139,104.3161,23.7681,308.0154,8.4732e-05,0.00011266,0.0,0 STARLINK-3961,1 52637U 22052AR  22202.58335648  .00011266  00000-0  84732-4 0  9998,2 52637  53.2139 104.3161 0002490  23.7681 308.0154 15.73157392 11046,6728.017,91.536,351.557,348.206,0.0
52637.0,STARLINK-3961,PAYLOAD,2022-07-21 22:00:00,15.73155224,0.0002648999999999,53.2139,102.6681,27.0265,33.5758,8.3816e-06,5.52e-06,0.0,0 STARLINK-3961,1 52637U 22052AR  22202.91667824  .00000552  00000-0  83816-5 0  9998,2 52637  53.2139 102.6681 0002649  27.0265  33.5758 15.73155224  1305,6728.023,91.536,351.67,348.106,0.0
52637.0,STARLINK-3961,PAYLOAD,2022-07-22 06:00:00,15.73166578,0.0002742,53.2133,101.0192,25.9868,123.4828,0.00045169,0.00063166,0.0,0 STARLINK-3961,1 52637U 22052AR  22203.25001157  .00063166  00000-0  45169-3 0  9994,2 52637  53.2133 101.0192 0002742  25.9868 123.4828 15.73166578  1300,6727.99,91.535,351.7,348.011,0.0
52637.0,STARLINK-3961,PAYLOAD,2022-07-22 20:00:01,15.73258434,0.000248,53.214,98.1313,28.9953,186.1029,0.00024455,0.00033928,0.0,0 STARLINK-3961,1 52637U 22052AR  22203.83334491  .00033928  00000-0  24455-3 0  9996,2 52637  53.2140  98.1313 0002480  28.9953 186.1029 15.73258434 11242,6727.729,91.53,351.26199999999994,347.925,0.0
52637.0,STARLINK-3961,PAYLOAD,2022-07-22 22:00:00,15.73277686,0.0002522,53.2143,97.7192,26.3205,301.0249,3.7276e-06,-9.8e-07,0.0,0 STARLINK-3961,1 52637U 22052AR  22203.91667824 -.00000098  00000-0  37276-5 0  9994,2 52637  53.2143  97.7192 0002522  26.3205 301.0249 15.73277686  1302,6727.674,91.529,351.235,347.842,0.0
52637.0,STARLINK-3961,PAYLOAD,2022-07-23 06:00:00,15.73454542,0.0002708,53.2155,96.0672,15.3067,41.0125,-0.0046313999999999,-0.00612338,0.0,0 STARLINK-3961,1 52637U 22052AR  22204.25001157 -.00612338  00000-0 -46314-2 0  9990,2 52637  53.2155  96.0672 0002708  15.3067  41.0125 15.73454542 11314,6727.17,91.518,350.856,347.213,0.0
52637.0,STARLINK-3961,PAYLOAD,2022-07-23 14:00:01,15.73131735,0.0002041,53.2169,94.4121,22.9642,122.3661,-0.0061357,-0.00783564,0.0,0 STARLINK-3961,1 52637U 22052AR  22204.58335648 -.00783564  00000-0 -61357-2 0  9995,2 52637  53.2169  94.4121 0002041  22.9642 122.3661 15.73131735  1305,6728.09,91.537,351.32800000000015,348.582,0.0
52637.0,STARLINK-3961,PAYLOAD,2022-07-23 22:00:00,15.72562829,0.0002529999999999,53.2175,92.7619,17.3111,216.4723,-0.0085519,-0.01051696,0.0,0 STARLINK-3961,1 52637U 22052AR  22204.91667824 -.01051696  00000-0 -85519-2 0  9997,2 52637  53.2175  92.7619 0002530  17.3111 216.4723 15.72562829  1302,6729.712,91.57,353.28,349.875,0.0
